LEMUR-2-GREENBERG       
1 42837U 17042N   26068.46200528  .00019778  00000+0  72539-3 0  9997
2 42837  97.3781 249.8007 0009157   4.0119 356.1192 15.27971352473146
STARLINK-34686          
1 65087U 25167K   26068.28772293  .00032212  00000+0  10950-2 0  9995
2 65087  53.1619  28.8582 0001133  84.6133 275.4997 15.30199942 33416
